CCSDS_OMM_VERS = 2.0
CREATION_DATE  = 
ORIGINATOR     = 

OBJECT_NAME    = STARLINK-36598
OBJECT_ID      = 2026-033Z
CENTER_NAME    = EARTH
REF_FRAME      = TEME
TIME_SYSTEM    = UTC
MEAN_ELEMENT_THEORY = SGP/SGP4

EPOCH          = 2026-03-15T06:00:00.999648
MEAN_MOTION    = 15.60641071
ECCENTRICITY   = .00017705
INCLINATION    = 42.9994
RA_OF_ASC_NODE = 237.7017
ARG_OF_PERICENTER = 267.1912
MEAN_ANOMALY   = 349.8508

EPHEMERIS_TYPE = 0
CLASSIFICATION_TYPE = U
NORAD_CAT_ID   = 67844
ELEMENT_SET_NO = 999
REV_AT_EPOCH   = 555
BSTAR          = -.2567806E-1
MEAN_MOTION_DOT = -.192942E-1
MEAN_MOTION_DDOT = 0

CCSDS_OMM_VERS = 2.0
CREATION_DATE  = 
ORIGINATOR     = 

OBJECT_NAME    = STARLINK-36606
OBJECT_ID      = 2026-033AA
CENTER_NAME    = EARTH
REF_FRAME      = TEME
TIME_SYSTEM    = UTC
MEAN_ELEMENT_THEORY = SGP/SGP4

EPOCH          = 2026-03-15T06:00:00.999648
MEAN_MOTION    = 15.67365045
ECCENTRICITY   = .00018039
INCLINATION    = 42.9995
RA_OF_ASC_NODE = 237.4322
ARG_OF_PERICENTER = 268.8993
MEAN_ANOMALY   = 96.6725

EPHEMERIS_TYPE = 0
CLASSIFICATION_TYPE = U
NORAD_CAT_ID   = 67845
ELEMENT_SET_NO = 999
REV_AT_EPOCH   = 555
BSTAR          = -.19838322E-1
MEAN_MOTION_DOT = -.1948485E-1
MEAN_MOTION_DDOT = 0

CCSDS_OMM_VERS = 2.0
CREATION_DATE  = 
ORIGINATOR     = 

OBJECT_NAME    = STARLINK-36658
OBJECT_ID      = 2026-033AB
CENTER_NAME    = EARTH
REF_FRAME      = TEME
TIME_SYSTEM    = UTC
MEAN_ELEMENT_THEORY = SGP/SGP4

EPOCH          = 2026-03-15T06:00:00.999648
MEAN_MOTION    = 15.61104618
ECCENTRICITY   = .00017079
INCLINATION    = 42.9993
RA_OF_ASC_NODE = 237.6595
ARG_OF_PERICENTER = 264.5217
MEAN_ANOMALY   = 9.4614

EPHEMERIS_TYPE = 0
CLASSIFICATION_TYPE = U
NORAD_CAT_ID   = 67846
ELEMENT_SET_NO = 999
REV_AT_EPOCH   = 555
BSTAR          = -.2528842E-1
MEAN_MOTION_DOT = -.1934115E-1
MEAN_MOTION_DDOT = 0

CCSDS_OMM_VERS = 2.0
CREATION_DATE  = 
ORIGINATOR     = 

OBJECT_NAME    = STARLINK-36618
OBJECT_ID      = 2026-033AC
CENTER_NAME    = EARTH
REF_FRAME      = TEME
TIME_SYSTEM    = UTC
MEAN_ELEMENT_THEORY = SGP/SGP4

EPOCH          = 2026-03-14T22:05:49.557408
MEAN_MOTION    = 15.91659854
ECCENTRICITY   = .00026748
INCLINATION    = 42.9779
RA_OF_ASC_NODE = 236.5266
ARG_OF_PERICENTER = 289.8116
MEAN_ANOMALY   = 70.2470

EPHEMERIS_TYPE = 0
CLASSIFICATION_TYPE = U
NORAD_CAT_ID   = 67847
ELEMENT_SET_NO = 999
REV_AT_EPOCH   = 548
BSTAR          = .12013363E-2
MEAN_MOTION_DOT = .403936E-2
MEAN_MOTION_DDOT = .6981852E-4

CCSDS_OMM_VERS = 2.0
CREATION_DATE  = 
ORIGINATOR     = 

OBJECT_NAME    = STARLINK-36660
OBJECT_ID      = 2026-033AD
CENTER_NAME    = EARTH
REF_FRAME      = TEME
TIME_SYSTEM    = UTC
MEAN_ELEMENT_THEORY = SGP/SGP4

EPOCH          = 2026-03-15T06:00:00.999648
MEAN_MOTION    = 15.59644865
ECCENTRICITY   = .00014816
INCLINATION    = 42.9994
RA_OF_ASC_NODE = 237.7155
ARG_OF_PERICENTER = 264.9268
MEAN_ANOMALY   = 346.3439

EPHEMERIS_TYPE = 0
CLASSIFICATION_TYPE = U
NORAD_CAT_ID   = 67848
ELEMENT_SET_NO = 999
REV_AT_EPOCH   = 555
BSTAR          = -.26379442E-1
MEAN_MOTION_DOT = -.190948E-1
MEAN_MOTION_DDOT = 0

CCSDS_OMM_VERS = 2.0
CREATION_DATE  = 
ORIGINATOR     = 

OBJECT_NAME    = STARLINK-36602
OBJECT_ID      = 2026-033AE
CENTER_NAME    = EARTH
REF_FRAME      = TEME
TIME_SYSTEM    = UTC
MEAN_ELEMENT_THEORY = SGP/SGP4

EPOCH          = 2026-03-15T06:00:00.999648
MEAN_MOTION    = 15.60238951
ECCENTRICITY   = .000163
INCLINATION    = 42.9995
RA_OF_ASC_NODE = 237.6770
ARG_OF_PERICENTER = 266.5696
MEAN_ANOMALY   = 359.9384

EPHEMERIS_TYPE = 0
CLASSIFICATION_TYPE = U
NORAD_CAT_ID   = 67849
ELEMENT_SET_NO = 999
REV_AT_EPOCH   = 555
BSTAR          = -.26203841E-1
MEAN_MOTION_DOT = -.1937231E-1
MEAN_MOTION_DDOT = 0

CCSDS_OMM_VERS = 2.0
CREATION_DATE  = 
ORIGINATOR     = 

OBJECT_NAME    = STARLINK-36840
OBJECT_ID      = 2026-034A
CENTER_NAME    = EARTH
REF_FRAME      = TEME
TIME_SYSTEM    = UTC
MEAN_ELEMENT_THEORY = SGP/SGP4

EPOCH          = 2026-03-15T07:04:43.278240
MEAN_MOTION    = 15.80972742
ECCENTRICITY   = .00022063
INCLINATION    = 53.1585
RA_OF_ASC_NODE = 183.2672
ARG_OF_PERICENTER = 36.7266
MEAN_ANOMALY   = 323.3908

EPHEMERIS_TYPE = 0
CLASSIFICATION_TYPE = U
NORAD_CAT_ID   = 67850
ELEMENT_SET_NO = 999
REV_AT_EPOCH   = 482
BSTAR          = .16162889E-2
MEAN_MOTION_DOT = .332416E-2
MEAN_MOTION_DDOT = 0

CCSDS_OMM_VERS = 2.0
CREATION_DATE  = 
ORIGINATOR     = 

OBJECT_NAME    = STARLINK-36348
OBJECT_ID      = 2026-034B
CENTER_NAME    = EARTH
REF_FRAME      = TEME
TIME_SYSTEM    = UTC
MEAN_ELEMENT_THEORY = SGP/SGP4

EPOCH          = 2026-03-15T07:03:38.744352
MEAN_MOTION    = 15.80882269
ECCENTRICITY   = .00009097
INCLINATION    = 53.1586
RA_OF_ASC_NODE = 183.2613
ARG_OF_PERICENTER = 100.3662
MEAN_ANOMALY   = 259.7464

EPHEMERIS_TYPE = 0
CLASSIFICATION_TYPE = U
NORAD_CAT_ID   = 67851
ELEMENT_SET_NO = 999
REV_AT_EPOCH   = 482
BSTAR          = .14792829E-2
MEAN_MOTION_DOT = .301833E-2
MEAN_MOTION_DDOT = 0

CCSDS_OMM_VERS = 2.0
CREATION_DATE  = 
ORIGINATOR     = 

OBJECT_NAME    = STARLINK-36276
OBJECT_ID      = 2026-034C
CENTER_NAME    = EARTH
REF_FRAME      = TEME
TIME_SYSTEM    = UTC
MEAN_ELEMENT_THEORY = SGP/SGP4

EPOCH          = 2026-03-15T07:02:34.172448
MEAN_MOTION    = 15.80917312
ECCENTRICITY   = .00015102
INCLINATION    = 53.1585
RA_OF_ASC_NODE = 183.2556
ARG_OF_PERICENTER = 40.8378
MEAN_ANOMALY   = 319.2758

EPHEMERIS_TYPE = 0
CLASSIFICATION_TYPE = U
NORAD_CAT_ID   = 67852
ELEMENT_SET_NO = 999
REV_AT_EPOCH   = 482
BSTAR          = .173662E-2
MEAN_MOTION_DOT = .357349E-2
MEAN_MOTION_DDOT = 0

CCSDS_OMM_VERS = 2.0
CREATION_DATE  = 
ORIGINATOR     = 

OBJECT_NAME    = STARLINK-36785
OBJECT_ID      = 2026-034D
CENTER_NAME    = EARTH
REF_FRAME      = TEME
TIME_SYSTEM    = UTC
MEAN_ELEMENT_THEORY = SGP/SGP4

EPOCH          = 2026-03-15T02:28:21.915552
MEAN_MOTION    = 15.81022423
ECCENTRICITY   = .00014216
INCLINATION    = 53.1584
RA_OF_ASC_NODE = 184.2014
ARG_OF_PERICENTER = 136.0402
MEAN_ANOMALY   = 224.0734

EPHEMERIS_TYPE = 0
CLASSIFICATION_TYPE = U
NORAD_CAT_ID   = 67853
ELEMENT_SET_NO = 999
REV_AT_EPOCH   = 479
BSTAR          = .25815564E-2
MEAN_MOTION_DOT = .546136E-2
MEAN_MOTION_DDOT = 0

CCSDS_OMM_VERS = 2.0
CREATION_DATE  = 
ORIGINATOR     = 

OBJECT_NAME    = STARLINK-36608
OBJECT_ID      = 2026-034E
CENTER_NAME    = EARTH
REF_FRAME      = TEME
TIME_SYSTEM    = UTC
MEAN_ELEMENT_THEORY = SGP/SGP4

EPOCH          = 2026-03-15T07:00:24.593184
MEAN_MOTION    = 15.80908190
ECCENTRICITY   = .00018321
INCLINATION    = 53.1583
RA_OF_ASC_NODE = 183.2456
ARG_OF_PERICENTER = 38.6052
MEAN_ANOMALY   = 321.5101

EPHEMERIS_TYPE = 0
CLASSIFICATION_TYPE = U
NORAD_CAT_ID   = 67854
ELEMENT_SET_NO = 999
REV_AT_EPOCH   = 481
BSTAR          = .1770392E-2
MEAN_MOTION_DOT = .364461E-2
MEAN_MOTION_DDOT = 0

CCSDS_OMM_VERS = 2.0
CREATION_DATE  = 
ORIGINATOR     = 

OBJECT_NAME    = STARLINK-36838
OBJECT_ID      = 2026-034F
CENTER_NAME    = EARTH
REF_FRAME      = TEME
TIME_SYSTEM    = UTC
MEAN_ELEMENT_THEORY = SGP/SGP4

EPOCH          = 2026-03-14T21:53:04.502688
MEAN_MOTION    = 15.81020325
ECCENTRICITY   = .00011355
INCLINATION    = 53.1579
RA_OF_ASC_NODE = 185.1415
ARG_OF_PERICENTER = 103.8367
MEAN_ANOMALY   = 256.2782

EPHEMERIS_TYPE = 0
CLASSIFICATION_TYPE = U
NORAD_CAT_ID   = 67855
ELEMENT_SET_NO = 999
REV_AT_EPOCH   = 476
BSTAR          = .13802921E-2
MEAN_MOTION_DOT = .28275E-2
MEAN_MOTION_DDOT = 0

