STARLINK-36598          
1 67844U 26033Z   26074.25001157 -.01929420  00000+0 -25678-1 0  9990
2 67844  42.9994 237.7017 0001770 267.1912 349.8508 15.60641071  5551
STARLINK-36606          
1 67845U 26033AA  26074.25001157 -.01948485  00000+0 -19838-1 0  9994
2 67845  42.9995 237.4322 0001803 268.8993  96.6725 15.67365045  5552
STARLINK-36658          
1 67846U 26033AB  26074.25001157 -.01934115  00000+0 -25288-1 0  9996
2 67846  42.9993 237.6595 0001707 264.5217   9.4614 15.61104618  5550
STARLINK-36618          
1 67847U 26033AC  26073.92071247  .00403936  69819-4  12013-2 0  9997
2 67847  42.9779 236.5266 0002674 289.8116  70.2470 15.91659854  5486
STARLINK-36660          
1 67848U 26033AD  26074.25001157 -.01909480  00000+0 -26379-1 0  9997
2 67848  42.9994 237.7155 0001481 264.9268 346.3439 15.59644865  5553
STARLINK-36602          
1 67849U 26033AE  26074.25001157 -.01937231  00000+0 -26204-1 0  9990
2 67849  42.9995 237.6770 0001630 266.5696 359.9384 15.60238951  5552
STARLINK-36840          
1 67850U 26034A   26074.29494535  .00332416  00000+0  16163-2 0  9998
2 67850  53.1585 183.2672 0002206  36.7266 323.3908 15.80972742  4821
STARLINK-36348          
1 67851U 26034B   26074.29419843  .00301833  00000+0  14793-2 0  9994
2 67851  53.1586 183.2613 0000909 100.3662 259.7464 15.80882269  4827
STARLINK-36276          
1 67852U 26034C   26074.29345107  .00357349  00000+0  17366-2 0  9998
2 67852  53.1585 183.2556 0001510  40.8378 319.2758 15.80917312  4820
STARLINK-36785          
1 67853U 26034D   26074.10303143  .00546136  00000+0  25816-2 0  9996
2 67853  53.1584 184.2014 0001421 136.0402 224.0734 15.81022423  4791
STARLINK-36608          
1 67854U 26034E   26074.29195131  .00364461  00000+0  17704-2 0  9999
2 67854  53.1583 183.2456 0001832  38.6052 321.5101 15.80908190  4811
STARLINK-36838          
1 67855U 26034F   26073.91185767  .00282750  00000+0  13803-2 0  9998
2 67855  53.1579 185.1415 0001135 103.8367 256.2782 15.81020325  4762
